API VERSION: 1.2
API SOURCE: NASA/JPL Horizons API



*******************************************************************************
Ephemeris / API_USER Wed Apr 15 12:09:38 2026 Pasadena, USA      / Horizons
*******************************************************************************
Target body name: Earth (399)                     {source: DE441}
Center body name: Sun (10)                        {source: DE441}
Center-site name: BODY CENTER
*******************************************************************************
Start time      : A.D. 1800-Jan-01 00:00:00.0000 TDB
Stop  time      : A.D. 1899-Dec-18 00:00:00.0000 TDB
Step-size       : 43200 minutes
*******************************************************************************
Center geodetic : 0.0, 0.0, 0.0                   {E-lon(deg),Lat(deg),Alt(km)}
Center cylindric: 0.0, 0.0, 0.0                   {E-lon(deg),Dxy(km),Dz(km)}
Center radii    : 695700.0, 695700.0, 695700.0 km {Equator_a, b, pole_c}
Output units    : AU-D
Calendar mode   : Mixed Julian/Gregorian
Output type     : GEOMETRIC cartesian states
Output format   : 3 (position, velocity, LT, range, range-rate)
Reference frame : Ecliptic of J2000.0
*******************************************************************************
            JDTDB,            Calendar Date (TDB),                      X,                      Y,                      Z,                     VX,                     VY,                     VZ,                     LT,                     RG,                     RR,
**************************************************************************************************************************************************************************************************************************************************************************
$$SOE
2391996.500000000, A.D. 1836-Dec-18 00:00:00.0000,  2.635589222785799E-02,  9.833310321986046E-01,  3.664541418537122E-04, -1.747681311152620E-02,  3.932442499046852E-04, -1.001444580515486E-06,  5.681286366936326E-03,  9.836842411203596E-01, -7.515429502883408E-05,
2392026.500000000, A.D. 1837-Jan-17 00:00:00.0000, -4.775094115769093E-01,  8.602375472578779E-01,  3.036785796583020E-04, -1.531850929366993E-02, -8.414458779413802E-03, -4.136440960399339E-06,  5.682429049863120E-03,  9.838820905359826E-01,  7.754762662690329E-05,
2392056.500000000, A.D. 1837-Feb-16 00:00:00.0000, -8.512350757044967E-01,  5.023358100587149E-01,  1.582110835808163E-04, -9.019672576455286E-03, -1.487753491556422E-02, -6.076886292940949E-06,  5.708545356565449E-03,  9.884039888667652E-01,  2.067395071578359E-04,
2392086.500000000, A.D. 1837-Mar-18 00:00:00.0000, -9.959406510211354E-01,  8.776556730213181E-03, -2.967630119416124E-05, -4.292016257196542E-04, -1.726099848137466E-02, -6.334566028805421E-06,  5.752296830010857E-03,  9.959793216654271E-01,  2.770814575464120E-04,
2392116.500000000, A.D. 1837-Apr-17 00:00:00.0000, -8.782372081557440E-01, -4.876560862796421E-01, -2.095563439909739E-04,  8.071090145692041E-03, -1.509638618346424E-02, -4.927399398892422E-06,  5.801763575325201E-03,  1.004544223112469E+00,  2.722766734834909E-04,
2392146.500000000, A.D. 1837-May-17 00:00:00.0000, -5.344913729128959E-01, -8.591822626295249E-01, -3.354274539921290E-04,  1.432371364404424E-02, -9.142953315793109E-03, -2.323932874618101E-06,  5.844057762955078E-03,  1.011867234693900E+00,  1.972222430288612E-04,
2392176.500000000, A.D. 1837-Jun-16 00:00:00.0000, -5.585741205912412E-02, -1.014588578279171E+00, -3.768401759932939E-04,  1.689040464328529E-02, -1.003280251258088E-03,  7.449411776482001E-07,  5.868649019354386E-03,  1.016125078750156E+00,  7.328045785663263E-05,
2392206.500000000, A.D. 1837-Jul-16 00:00:00.0000,  4.368112404024062E-01, -9.176325462901258E-01, -3.247436853071181E-04,  1.524482931958445E-02,  7.332865422632522E-03,  3.497653187133724E-06,  5.869625083965918E-03,  1.016294079098786E+00, -6.864578062395055E-05,
2392236.500000000, A.D. 1837-Aug-15 00:00:00.0000,  8.207722049879935E-01, -5.925877821651377E-01, -1.924950364326963E-04,  9.783054456986809E-03,  1.388263686894925E-02,  5.306624556085914E-06,  5.846774117467617E-03,  1.012337556898186E+00, -1.946216800436555E-04,
2392266.500000000, A.D. 1837-Sep-14 00:00:00.0000,  9.981596092781310E-01, -1.188418473454438E-01, -1.262250425657337E-05,  1.750247990887305E-03,  1.701497922136207E-02,  5.821515911134959E-06,  5.805605467700693E-03,  1.005209426156598E+00, -2.736392823343478E-04,
2392296.500000000, A.D. 1837-Oct-14 00:00:00.0000,  9.193673649706836E-01,  3.848759998718403E-01,  1.698897212482718E-04, -6.922722764471772E-03,  1.580150956996857E-02,  4.952134449034665E-06,  5.756328815132172E-03,  9.966774382482051E-01, -2.838458452007990E-04,
2392326.500000000, A.D. 1837-Nov-13 00:00:00.0000,  5.990494642165115E-01,  7.868664883612079E-01,  3.074703046922744E-04, -1.396461722473763E-02,  1.035595336709293E-02,  2.856179868787933E-06,  5.711690453311403E-03,  9.889485454875683E-01, -2.191650209400423E-04,
2392356.500000000, A.D. 1837-Dec-13 00:00:00.0000,  1.180236556132780E-01,  9.770093321387686E-01,  3.624734458353477E-04, -1.735505212865104E-02,  2.001772518886085E-03, -2.659724684369364E-09,  5.683758425625888E-03,  9.841122648141131E-01, -9.405051444341594E-05,
2392386.500000000, A.D. 1838-Jan-12 00:00:00.0000, -3.949848110619518E-01,  9.007233797036992E-01,  3.189544475175894E-04, -1.603226745492919E-02, -6.967228749333627E-03, -2.888338105394106E-06,  5.680349883447333E-03,  9.835220940306526E-01,  5.790961322447472E-05,
2392416.500000000, A.D. 1838-Feb-11 00:00:00.0000, -8.002185990190761E-01,  5.783638218299391E-01,  1.886581699366481E-04, -1.035722738991794E-02, -1.399932092142059E-02, -4.996639589156146E-06,  5.702442025250107E-03,  9.873472298080810E-01,  1.937963586790130E-04,
2392446.500000000, A.D. 1838-Mar-13 00:00:00.0000, -9.895256165061425E-01,  9.944594505402753E-02,  8.118090047520844E-06, -2.003406888907250E-03, -1.717347109007561E-02, -5.744409429426478E-06,  5.743811611772497E-03,  9.945101516703855E-01,  2.761061084727720E-04,
2392476.500000000, A.D. 1838-Apr-12 00:00:00.0000, -9.170612376073847E-01, -4.063375817935344E-01, -1.737139625941745E-04,  6.683007164250528E-03, -1.578664078408576E-02, -5.047784497618106E-06,  5.793140202163152E-03,  1.003051132333914E+00,  2.851095896449567E-04,
2392506.500000000, A.D. 1838-May-12 00:00:00.0000, -6.076033070634316E-01, -8.077137081838401E-01, -3.107753462753102E-04,  1.346017760790612E-02, -1.040314660400241E-02, -3.179367519023842E-06,  5.837513005109999E-03,  1.010734045000872E+00,  2.219344260268268E-04,
2392536.500000000, A.D. 1838-Jun-11 00:00:00.0000, -1.443466158940838E-01, -1.005321727198449E+00, -3.697876660437232E-04,  1.674186713152217E-02, -2.510084465898036E-03, -6.180913695002310E-07,  5.865799806697213E-03,  1.015631752871219E+00,  1.051668724885777E-04,
2392566.500000000, A.D. 1838-Jul-11 00:00:00.0000,  3.550518083922408E-01, -9.525382911331628E-01, -3.371477799917601E-04,  1.583626360738243E-02,  5.940943296308257E-03,  2.083624103054122E-06,  5.871152003062337E-03,  1.016558456944859E+00, -3.569164709465708E-05,
2392596.500000000, A.D. 1838-Aug-10 00:00:00.0000,  7.661760598036104E-01, -6.631309672465879E-01, -2.210858242817006E-04,  1.097903387367161E-02,  1.294019959663889E-02,  4.382752659703936E-06,  5.852308767073061E-03,  1.013295851771102E+00, -1.669553169212742E-04,
2392626.500000000, A.D. 1838-Sep-09 00:00:00.0000,  9.849728734817599E-01, -2.076792779673514E-01, -4.967380107999679E-05,  3.273252820935094E-03,  1.676825990348514E-02,  5.741289280799071E-06,  5.813805111164091E-03,  1.006629150412128E+00, -2.566537616577605E-04,
2392656.500000000, A.D. 1838-Oct-09 00:00:00.0000,  9.519419904899338E-01,  3.003601271103640E-01,  1.345030268802023E-04, -5.451533809374218E-03,  1.634501316221376E-02,  5.704965400019019E-06,  5.765141310618867E-03,  9.982032745421923E-01, -2.806572113171433E-04,
2392686.500000000, A.D. 1838-Nov-08 00:00:00.0000,  6.698520686378010E-01,  7.292189868081429E-01,  2.834967388484921E-04, -1.294589805493545E-02,  1.158036972977886E-02,  4.129603599444662E-06,  5.718819576452600E-03,  9.901829148951403E-01, -2.294625943475089E-04,
2392716.500000000, A.D. 1838-Dec-08 00:00:00.0000,  2.086419884297588E-01,  9.623639684147717E-01,  3.565638359793102E-04, -1.709236080058760E-02,  3.589299710265518E-03,  1.347353103764129E-06,  5.687275847667514E-03,  9.847212875614706E-01, -1.137082668865998E-04,
2392746.500000000, A.D. 1839-Jan-07 00:00:00.0000, -3.091149345981716E-01,  9.334889147647585E-01,  3.326395790431063E-04, -1.661439055488445E-02, -5.463867907113055E-03, -1.886880378828281E-06,  5.679286895161747E-03,  9.833380433144077E-01,  3.589355595616800E-05,
2392776.500000000, A.D. 1839-Feb-06 00:00:00.0000, -7.424500143929420E-01,  6.494633452122217E-01,  2.178035435932144E-04, -1.161279492354148E-02, -1.300644017858552E-02, -4.645146594982794E-06,  5.697116921475899E-03,  9.864252166711436E-01,  1.771169225570491E-04,
2392806.500000000, A.D. 1839-Mar-08 00:00:00.0000, -9.749164306910575E-01,  1.892442368735293E-01,  4.386429433820526E-05, -3.565866708105174E-03, -1.694958392169163E-02, -6.161182959428916E-06,  5.735748149860498E-03,  9.931140065195498E-01,  2.706745618136214E-04,
2392836.500000000, A.D. 1839-Apr-07 00:00:00.0000, -9.484698548601034E-01, -3.217867996388554E-01, -1.419910419019714E-04,  5.239919072967759E-03, -1.635665597958459E-02, -6.067821787952221E-06,  5.784584065118737E-03,  1.001569683128248E+00,  2.929916553660471E-04,
2392866.500000000, A.D. 1839-May-07 00:00:00.0000, -6.759036372078743E-01, -7.499133619066956E-01, -2.914197584055797E-04,  1.249434696154640E-02, -1.158612871327746E-02, -4.423527256193532E-06,  5.830745068379723E-03,  1.009562213081745E+00,  2.413119914332118E-04,
